ASTROCAST-0403          
1 55111U 23001DG  26068.82333059  .00013959  00000+0  51317-3 0  9990
2 55111  97.5604 161.3228 0004771 338.0704  22.0330 15.28004949129377
STARLINK-31668          
1 59580U 24076S   26068.20327655 -.00003044  00000+0 -10115-3 0  9991
2 59580  43.0046  11.2859 0001291 278.2147  81.8559 15.27569780106436
